OBJECT_NAME,OBJECT_ID,EPOCH,MEAN_MOTION,ECCENTRICITY,INCLINATION,RA_OF_ASC_NODE,ARG_OF_PERICENTER,MEAN_ANOMALY,EPHEMERIS_TYPE,CLASSIFICATION_TYPE,NORAD_CAT_ID,ELEMENT_SET_NO,REV_AT_EPOCH,BSTAR,MEAN_MOTION_DOT,MEAN_MOTION_DDOT
SL-16 R/B,1994-077B,2026-06-27T07:06:41.118336,14.15577458,.00034897,70.9829,121.8948,319.0439,41.0421,0,U,23405,999,63174,.85395522E-4,.119E-5,0
ARIANE 40+ R/B,1995-021B,2026-06-27T04:48:32.717088,14.39838470,.00070957,98.4408,248.1306,164.0113,257.7283,0,U,23561,999,63500,.90769184E-4,.242E-5,0
SL-16 R/B,1995-058B,2026-06-27T02:19:02.834112,14.15512009,.00143948,71.0229,310.5526,306.8268,53.1534,0,U,23705,999,58333,-.24675471E-4,-.96E-6,0
SL-16 R/B,1996-051B,2026-06-27T02:06:20.232288,14.12449334,.00163185,70.7651,303.6955,322.5923,37.4059,0,U,24298,999,53709,.92055987E-4,.121E-5,0
ORBVIEW 2 (SEASTAR),1997-037A,2026-06-27T04:42:18.321696,14.35558309,.00033297,98.8695,345.4928,96.5222,263.6341,0,U,24883,999,52418,.10568628E-3,.258E-5,0
SL-16 R/B,1998-043G,2026-06-27T02:46:19.332192,14.26070161,.00108257,98.8368,132.3604,60.4737,299.7520,0,U,25400,999,45458,.33626793E-4,.35E-6,0
SL-16 R/B,1998-045B,2026-06-27T02:59:13.255008,14.16203901,.00089355,71.0121,311.4303,228.8027,131.2327,0,U,25407,999,44259,.14574589E-3,.241E-5,0
ISS (ZARYA),1998-067A,2026-06-27T06:02:08.359296,15.49452150,.00042843,51.6322,250.2737,237.3448,122.7128,0,U,25544,999,57331,.14015541E-3,.7401E-4,0
CZ-4B R/B,1999-025C,2026-06-27T02:00:46.552896,14.18285016,.0037665,98.6480,219.6732,31.7759,22.2389,0,U,25732,999,40367,.48406875E-4,.58E-6,0
OKEAN-O,1999-039A,2026-06-27T03:32:39.757632,14.80478522,.00013137,97.9312,236.8312,70.1766,289.9588,0,U,25860,999,45058,.83579886E-4,.587E-5,0
SL-16 R/B,1999-039B,2026-06-27T03:50:41.244576,14.81854217,.00133868,97.9833,236.9947,261.2353,98.7343,0,U,25861,999,45307,.65782528E-4,.467E-5,0
DELTA 2 R/B,1999-041E,2026-06-27T07:07:54.095232,14.12032611,.05009924,51.7629,223.4091,311.8983,44.0225,0,U,25876,999,37851,.20793046E-3,.1057E-4,0
HELIOS 1B,1999-064A,2026-06-27T06:22:01.846560,14.88032111,.00025065,98.1607,83.6964,77.5049,282.6447,0,U,25977,999,70155,.15760266E-3,.1389E-4,0
TERRA,1999-068A,2026-06-27T05:14:05.961120,14.61110552,.00023755,97.9451,227.3665,160.9536,243.0874,0,U,25994,999,41107,.8573924E-4,.377E-5,0
SL-16 R/B,2000-006B,2026-06-27T07:25:44.632704,14.15838817,.00161749,71.0014,227.3416,7.1285,353.0064,0,U,26070,999,36407,.16677312E-3,.281E-5,0
TITAN 4B R/B,2000-047B,2026-06-27T06:13:44.510016,15.10251285,.00459151,67.9891,92.2213,276.8866,82.7061,0,U,26474,999,40945,.18533631E-3,.2975E-4,0
ENVISAT,2002-009A,2026-06-27T08:12:04.359168,14.39067031,.00013872,98.3838,129.4339,86.8127,29.9540,0,U,27386,999,27494,.38331679E-4,.76E-6,0
IDEFIX & ARIANE 42P R/B,2002-021B,2026-06-27T06:25:16.022784,14.31086438,.00108588,98.5943,115.6415,221.0457,138.9910,0,U,27422,999,25969,.88551057E-4,.19E-5,0
AQUA,2002-022A,2026-06-27T06:14:38.879808,14.62172598,.00007677,98.4281,147.7445,67.0515,44.6782,0,U,27424,999,28474,.16699158E-3,.791E-5,0
CZ-4B R/B,2002-024C,2026-06-27T03:25:04.490976,14.14565649,.00511685,98.8696,230.8978,72.5478,346.1272,0,U,27432,999,24471,.38399745E-4,.31E-6,0
MIDORI II (ADEOS-II),2002-056A,2026-06-27T03:33:30.985920,14.29354604,.00020832,98.7883,137.4930,64.0231,296.1164,0,U,27597,999,22593,.10786428E-3,.229E-5,0
H-2A R/B,2002-056E,2026-06-27T02:53:42.659232,14.33826104,.00697186,98.3316,134.4333,194.6430,175.6871,0,U,27601,999,22979,.80679003E-4,.189E-5,0
CZ-4B R/B,2003-049C,2026-06-27T06:29:51.440928,14.55106178,.00468991,98.6899,177.5188,257.0263,102.5694,0,U,28059,999,20253,.75204817E-4,.277E-5,0
CZ-2C R/B,2004-012C,2026-06-27T04:01:12.016416,15.80962049,.00104874,97.7076,255.0053,246.0338,113.9832,0,U,28222,999,22147,.60662509E-3,.118866E-2,0
SL-16 R/B,2004-021B,2026-06-27T04:51:27.784224,14.14607658,.00068352,71.0006,2.6695,241.9571,118.0861,0,U,28353,999,13832,.96918065E-4,.139E-5,0
CZ-4B R/B,2004-035C,2026-06-27T03:13:45.344640,15.30761454,.00290352,97.3366,211.0961,300.8624,58.9761,0,U,28415,999,19664,.25852018E-3,.7707E-4,0
CZ-2C R/B,2004-046B,2026-06-27T06:55:15.454848,14.27028703,.01390585,98.1938,86.4377,190.2436,169.5906,0,U,28480,999,12413,.47620313E-4,.87E-6,0
ARIANE 5 R/B,2004-049H,2026-06-27T00:46:14.345472,14.85460029,.00837701,98.2726,350.6655,357.6424,2.4383,0,U,28499,999,16202,.65497863E-4,.536E-5,0
CZ-2D R/B,2005-024B,2026-06-27T00:49:35.628960,15.70629683,.00013289,97.3480,197.9605,24.8080,335.3246,0,U,28738,999,15688,.51055284E-3,.63119E-3,0
ALOS (DAICHI),2006-002A,2026-06-27T07:12:27.318816,14.70069663,.00010877,98.1328,133.8364,59.7210,300.4103,0,U,28931,999,8958,.18939957E-3,.1088E-4,0
