SL-16 R/B               
1 23405U 94077B   26178.29630924  .00000119  00000+0  85396-4 0  9995
2 23405  70.9829 121.8948 0003489 319.0439  41.0421 14.15577458631747
ARIANE 40+ R/B          
1 23561U 95021B   26178.20037867  .00000242  00000+0  90769-4 0  9993
2 23561  98.4408 248.1306 0007095 164.0113 257.7283 14.39838470635008
SL-16 R/B               
1 23705U 95058B   26178.09656058 -.00000096  00000+0 -24675-4 0  9991
2 23705  71.0229 310.5526 0014394 306.8268  53.1534 14.15512009583337
SL-16 R/B               
1 24298U 96051B   26178.08773417  .00000121  00000+0  92056-4 0  9996
2 24298  70.7651 303.6955 0016318 322.5923  37.4059 14.12449334537096
ORBVIEW 2 (SEASTAR)     
1 24883U 97037A   26178.19604539  .00000258  00000+0  10569-3 0  9990
2 24883  98.8695 345.4928 0003329  96.5222 263.6341 14.35558309524188
SL-16 R/B               
1 25400U 98043G   26178.11550153  .00000035  00000+0  33627-4 0  9992
2 25400  98.8368 132.3604 0010825  60.4737 299.7520 14.26070161454585
SL-16 R/B               
1 25407U 98045B   26178.12445897  .00000241  00000+0  14575-3 0  9999
2 25407  71.0121 311.4303 0008935 228.8027 131.2327 14.16203901442591
ISS (ZARYA)             
1 25544U 98067A   26178.25148564  .00007401  00000+0  14016-3 0  9995
2 25544  51.6322 250.2737 0004284 237.3448 122.7128 15.49452150573314
CZ-4B R/B               
1 25732U 99025C   26178.08387214  .00000058  00000+0  48407-4 0  9990
2 25732  98.6480 219.6732 0037665  31.7759  22.2389 14.18285016403677
OKEAN-O                 
1 25860U 99039A   26178.14768238  .00000587  00000+0  83580-4 0  9991
2 25860  97.9312 236.8312 0001313  70.1766 289.9588 14.80478522450586
SL-16 R/B               
1 25861U 99039B   26178.16019959  .00000467  00000+0  65783-4 0  9995
2 25861  97.9833 236.9947 0013386 261.2353  98.7343 14.81854217453070
DELTA 2 R/B             
1 25876U 99041E   26178.29715388  .00001057  00000+0  20793-3 0  9994
2 25876  51.7629 223.4091 0500992 311.8983  44.0225 14.12032611378511
HELIOS 1B               
1 25977U 99064A   26178.26529915  .00001389  00000+0  15760-3 0  9993
2 25977  98.1607  83.6964 0002506  77.5049 282.6447 14.88032111701554
TERRA                   
1 25994U 99068A   26178.21812455  .00000377  00000+0  85739-4 0  9995
2 25994  97.9451 227.3665 0002375 160.9536 243.0874 14.61110552411071
SL-16 R/B               
1 26070U 00006B   26178.30954436  .00000281  00000+0  16677-3 0  9999
2 26070  71.0014 227.3416 0016174   7.1285 353.0064 14.15838817364074
TITAN 4B R/B            
1 26474U 00047B   26178.25954294  .00002975  00000+0  18534-3 0  9994
2 26474  67.9891  92.2213 0045915 276.8866  82.7061 15.10251285409457
ENVISAT                 
1 27386U 02009A   26178.34171712  .00000076  00000+0  38332-4 0  9992
2 27386  98.3838 129.4339 0001387  86.8127  29.9540 14.39067031274948
IDEFIX & ARIANE 42P R/B 
1 27422U 02021B   26178.26754656  .00000190  00000+0  88551-4 0  9997
2 27422  98.5943 115.6415 0010858 221.0457 138.9910 14.31086438259693
AQUA                    
1 27424U 02022A   26178.26017222  .00000791  00000+0  16699-3 0  9991
2 27424  98.4281 147.7445 0000767  67.0515  44.6782 14.62172598284740
CZ-4B R/B               
1 27432U 02024C   26178.14241309  .00000031  00000+0  38400-4 0  9996
2 27432  98.8696 230.8978 0051168  72.5478 346.1272 14.14565649244715
MIDORI II (ADEOS-II)    
1 27597U 02056A   26178.14827530  .00000229  00000+0  10786-3 0  9994
2 27597  98.7883 137.4930 0002083  64.0231 296.1164 14.29354604225939
H-2A R/B                
1 27601U 02056E   26178.12063263  .00000189  00000+0  80679-4 0  9997
2 27601  98.3316 134.4333 0069718 194.6430 175.6871 14.33826104229793
CZ-4B R/B               
1 28059U 03049C   26178.27073427  .00000277  00000+0  75205-4 0  9994
2 28059  98.6899 177.5188 0046899 257.0263 102.5694 14.55106178202530
CZ-2C R/B               
1 28222U 04012C   26178.16750019  .00118866  00000+0  60663-3 0  9999
2 28222  97.7076 255.0053 0010487 246.0338 113.9832 15.80962049221477
SL-16 R/B               
1 28353U 04021B   26178.20240491  .00000139  00000+0  96918-4 0  9993
2 28353  71.0006   2.6695 0006835 241.9571 118.0861 14.14607658138320
CZ-4B R/B               
1 28415U 04035C   26178.13455260  .00007707  00000+0  25852-3 0  9997
2 28415  97.3366 211.0961 0029035 300.8624  58.9761 15.30761454196646
CZ-2C R/B               
1 28480U 04046B   26178.28837332  .00000087  00000+0  47620-4 0  9993
2 28480  98.1938  86.4377 0139058 190.2436 169.5906 14.27028703124139
ARIANE 5 R/B            
1 28499U 04049H   26178.03211048  .00000536  00000+0  65498-4 0  9991
2 28499  98.2726 350.6655 0083770 357.6424   2.4383 14.85460029162024
CZ-2D R/B               
1 28738U 05024B   26178.03444015  .00063119  00000+0  51055-3 0  9992
2 28738  97.3480 197.9605 0001328  24.8080 335.3246 15.70629683156885
ALOS (DAICHI)           
1 28931U 06002A   26178.30031619  .00001088  00000+0  18940-3 0  9999
2 28931  98.1328 133.8364 0001087  59.7210 300.4103 14.70069663 89587
